ONEWEB-0283             
1 49001U 21060AL  25175.59565592 -.00000026  00000+0 -10141-3 0  9998
2 49001  87.9047 300.0623 0002052 105.6104 254.5253 13.16594320192564
ONEWEB-0284             
1 49002U 21060AM  25175.58931622  .00000017  00000+0  10742-4 0  9995
2 49002  87.9064 300.0324 0002056  91.8555 268.2811 13.16593673192542
ONEWEB-0285             
1 49075U 21075A   25175.43176892  .00000259  00000+0  68434-3 0  9993
2 49075  87.8877  61.8129 0001921  77.9677 282.1667 13.12443562188285
ONEWEB-0286             
1 49076U 21075B   25175.10869724 -.00000168  00000+0 -50182-3 0  9993
2 49076  87.8900  61.8972 0001750  75.7807 284.3515 13.12444106187594
ONEWEB-0287             
1 49077U 21075C   25175.43134900  .00000031  00000+0  46651-4 0  9995
2 49077  87.9067  77.0849 0001822  65.3873 294.7448 13.17649349186512
ONEWEB-0288             
1 49078U 21075D   25175.08449640 -.00000185  00000+0 -54993-3 0  9996
2 49078  87.8874  61.8758 0001925  74.4419 285.6922 13.12441743188217
ONEWEB-0289             
1 49079U 21075E   25175.15629775 -.00000692  00000+0 -18143-2 0  9993
2 49079  87.9074  77.1714 0002331  74.4065 285.7324 13.17651823187057
ONEWEB-0290             
1 49080U 21075F   25175.44317558  .00000047  00000+0  87380-4 0  9993
2 49080  87.9066  77.0698 0002560  80.7543 279.3878 13.17649294186506
